[{"OBJECT_NAME":"STARLINK-36178","OBJECT_ID":"2025-293Y","EPOCH":"2026-03-09T18:53:06.730944","MEAN_MOTION":14.9836025,"ECCENTRICITY":0.00031364,"INCLINATION":70.0026,"RA_OF_ASC_NODE":94.1594,"ARG_OF_PERICENTER":269.3092,"MEAN_ANOMALY":90.7708,"EPHEMERIS_TYPE":0,"CLASSIFICATION_TYPE":"U","NORAD_CAT_ID":67025,"ELEMENT_SET_NO":999,"REV_AT_EPOCH":1490,"BSTAR":-0.00019394647,"MEAN_MOTION_DOT":-2.408e-5,"MEAN_MOTION_DDOT":0},{"OBJECT_NAME":"NOAA 16 DEB","OBJECT_ID":"2000-055FT","EPOCH":"2026-03-09T11:21:21.418848","MEAN_MOTION":14.95188517,"ECCENTRICITY":0.00213748,"INCLINATION":98.8051,"RA_OF_ASC_NODE":256.9705,"ARG_OF_PERICENTER":245.6688,"MEAN_ANOMALY":114.2298,"EPHEMERIS_TYPE":0,"CLASSIFICATION_TYPE":"U","NORAD_CAT_ID":41267,"ELEMENT_SET_NO":999,"REV_AT_EPOCH":53609,"BSTAR":0.0049990459,"MEAN_MOTION_DOT":0.00055514,"MEAN_MOTION_DDOT":0}]
